STARLINK-32503          
1 62157U 24224U   25244.13118097  .00044824  00000+0  16275-2 0  9996
2 62157  43.0005 156.0534 0001375 262.7601  97.3095 15.27600483 42970
STARLINK-32508          
1 62158U 24224V   25244.15898412  .00049445  00000+0  17926-2 0  9993
2 62158  42.9988 148.4770 0002068 261.0339  99.0279 15.27610801 43492
STARLINK-32524          
1 62159U 24224W   25244.02773186  .00046826  00000+0  16996-2 0  9996
2 62159  42.9912 152.6718 0000472  91.5972 268.4934 15.27595044 43272
STARLINK-32484          
1 62160U 24224X   25244.11415586  .00045842  00000+0  16642-2 0  9990
2 62160  43.0014 148.9995 0001648 283.8956  76.1712 15.27596165 43484
STARLINK-32497          
1 62161U 24224Y   25244.15079196  .00038375  00000+0  13955-2 0  9995
2 62161  43.0005 151.8800 0001717 285.3035  74.7626 15.27611109 43445
STARLINK-32526          
1 62162U 24224Z   25244.15464708  .00034280  00000+0  12484-2 0  9990
2 62162  42.9991 151.9099 0001865 286.1436  73.9210 15.27605868 43442
STARLINK-32523          
1 62165U 24225C   25244.22904955  .00002075  00000+0  18163-3 0  9993
2 62165  70.0010 282.2303 0003619 268.3805  91.6939 14.98334740 41499
STARLINK-32551          
1 62166U 24225D   25244.27076836  .00007104  00000+0  60214-3 0  9999
2 62166  70.0010 281.9818 0004164 267.8928  92.1754 14.98353075 41508
STARLINK-32506          
1 62167U 24225E   25244.24574734  .00003162  00000+0  27262-3 0  9993
2 62167  70.0006 282.2929 0003941 268.6855  91.3853 14.98332704 41496
STARLINK-32562          
1 62168U 24225F   25244.28328531  .00004243  00000+0  36305-3 0  9999
2 62168  70.0014 282.0168 0003789 272.1411  87.9314 14.98338275 41501
STARLINK-32558          
1 62169U 24225G   25244.29163538  .00004322  00000+0  36965-3 0  9995
2 62169  70.0014 282.0463 0003660 268.1128  91.9612 14.98342702 41504
STARLINK-32538          
1 62170U 24225H   25244.23739720  .00004728  00000+0  40367-3 0  9994
2 62170  70.0010 282.2634 0003870 270.3011  89.7704 14.98336861 41497
STARLINK-32257          
1 62171U 24225J   25244.25824338  .00002986  00000+0  25791-3 0  9995
2 62171  70.0010 281.9360 0003322 270.5012  89.5766 14.98336221 41503
STARLINK-32407          
1 62172U 24225K   25244.27494859  .00002487  00000+0  21614-3 0  9995
2 62172  70.0013 281.9878 0003271 266.7892  93.2893 14.98329543 41509
STARLINK-32575          
1 62173U 24225L   25244.25171602  .00007766  00000+0  65785-3 0  9994
2 62173  70.0004 271.9031 0003395 269.4935  90.5835 14.98334840 41754
STARLINK-32552          
1 62174U 24225M   25244.26241027  .00013710  00000+0  11533-2 0  9992
2 62174  70.0010 281.9495 0003028 249.1557 110.9279 14.98372572 41501
STARLINK-32534          
1 62175U 24225N   25244.24159063 -.00003853  00000+0 -31552-3 0  9992
2 62175  70.0011 282.2774 0003461 270.9492  89.1270 14.98304060 41491
STARLINK-32516          
1 62176U 24225P   25244.23324169  .00003965  00000+0  33996-3 0  9999
2 62176  70.0014 282.2485 0003548 269.8464  90.2288 14.98319392 41492
STARLINK-32542          
1 62177U 24225Q   25244.28744430 -.00005922  00000+0 -48894-3 0  9992
2 62177  70.0006 282.0296 0003773 271.3539  88.7188 14.98330386 41502
STARLINK-32600          
1 62178U 24225R   25244.23503054  .00003847  00000+0  32993-3 0  9998
2 62178  70.0007 272.2446 0003219 268.6600  91.4190 14.98337313 41742
STARLINK-32584          
1 62179U 24225S   25244.27913319  .00013387  00000+0  11278-2 0  9994
2 62179  70.0052 281.9463 0002232 242.9827 117.1104 14.98323129 41504
STARLINK-32587          
1 62180U 24225T   25244.26658176  .00004874  00000+0  41599-3 0  9993
2 62180  70.0011 281.8748 0003285 270.7547  89.3236 14.98327081 41500
STARLINK-32602          
1 62181U 24225U   25244.28509264 -.00000262  00000+0 -14112-4 0  9990
2 62181  70.0009 272.0198 0003766 266.9379  93.1349 14.98335662 41752
STARLINK-32565          
1 62182U 24225V   25244.24989991  .00006990  00000+0  59288-3 0  9990
2 62182  70.0011 281.9079 0004338 273.1674  86.8989 14.98334669 41505
STARLINK-32589          
1 62183U 24225W   25244.24976791  .00007196  00000+0  61027-3 0  9998
2 62183  70.0011 282.3049 0003518 268.2294  91.8463 14.98328187 41499
STARLINK-32581          
1 62184U 24225X   25244.26839533  .00002272  00000+0  19811-3 0  9997
2 62184  70.0009 271.9623 0003716 266.4001  93.6733 14.98338008 41757
2024-226A               
1 62185U 24226A   25244.30308215 -.00000079  00000+0  73103-4 0  9991
2 62185  50.0041 277.5555 0056282 324.6067  35.1089 13.60129652 37394
2024-226B               
1 62186U 24226B   25244.30415847 -.00000044  00000+0  15005-3 0  9990
2 62186  50.0049 307.1564 0012087 276.1172  83.8328 13.41468100 36934
TJS-13                  
1 62188U 24227A   25232.32322359  .00000480  00000+0  00000+0 0  9995
2 62188  63.5574  75.0697 7077765 269.5601  16.4819  2.00654507  5215
HAISHAO-1               
1 62190U 24228A   25242.15662275  .00043220  00000+0  42170-3 0  9992
2 62190  42.9893 305.6309 0004059  17.1257 342.9745 15.65461406 41975
