OBJECT_NAME,OBJECT_ID,EPOCH,MEAN_MOTION,ECCENTRICITY,INCLINATION,RA_OF_ASC_NODE,ARG_OF_PERICENTER,MEAN_ANOMALY,EPHEMERIS_TYPE,CLASSIFICATION_TYPE,NORAD_CAT_ID,ELEMENT_SET_NO,REV_AT_EPOCH,BSTAR,MEAN_MOTION_DOT,MEAN_MOTION_DDOT
STARLINK-32503,2024-224U,2025-09-01T03:08:54.035808,15.27600483,.0001375,43.0005,156.0534,262.7601,97.3095,0,U,62157,999,4297,.16275019E-2,.44824E-3,0
STARLINK-32508,2024-224V,2025-09-01T03:48:56.227968,15.27610801,.00020685,42.9988,148.4770,261.0339,99.0279,0,U,62158,999,4349,.17925714E-2,.49445E-3,0
STARLINK-32524,2024-224W,2025-09-01T00:39:56.032704,15.27595044,.00004727,42.9912,152.6718,91.5972,268.4934,0,U,62159,999,4327,.16996022E-2,.46826E-3,0
STARLINK-32484,2024-224X,2025-09-01T02:44:23.066304,15.27596165,.0001648,43.0014,148.9995,283.8956,76.1712,0,U,62160,999,4348,.16642282E-2,.45842E-3,0
STARLINK-32497,2024-224Y,2025-09-01T03:37:08.425344,15.27611109,.00017172,43.0005,151.8800,285.3035,74.7626,0,U,62161,999,4344,.13954578E-2,.38375E-3,0
STARLINK-32526,2024-224Z,2025-09-01T03:42:41.507712,15.27605868,.00018657,42.9991,151.9099,286.1436,73.9210,0,U,62162,999,4344,.12484365E-2,.3428E-3,0
STARLINK-32523,2024-225C,2025-09-01T05:29:49.881120,14.98334740,.00036193,70.0010,282.2303,268.3805,91.6939,0,U,62165,999,4149,.18163458E-3,.2075E-4,0
STARLINK-32551,2024-225D,2025-09-01T06:29:54.386304,14.98353075,.00041648,70.0010,281.9818,267.8928,92.1754,0,U,62166,999,4150,.6021411E-3,.7104E-4,0
STARLINK-32506,2024-225E,2025-09-01T05:53:52.570176,14.98332704,.00039415,70.0006,282.2929,268.6855,91.3853,0,U,62167,999,4149,.27261841E-3,.3162E-4,0
STARLINK-32562,2024-225F,2025-09-01T06:47:55.850784,14.98338275,.00037898,70.0014,282.0168,272.1411,87.9314,0,U,62168,999,4150,.36304858E-3,.4243E-4,0
STARLINK-32558,2024-225G,2025-09-01T06:59:57.296832,14.98342702,.00036601,70.0014,282.0463,268.1128,91.9612,0,U,62169,999,4150,.36965473E-3,.4322E-4,0
STARLINK-32538,2024-225H,2025-09-01T05:41:51.118080,14.98336861,.00038702,70.0010,282.2634,270.3011,89.7704,0,U,62170,999,4149,.4036696E-3,.4728E-4,0
STARLINK-32257,2024-225J,2025-09-01T06:11:52.228032,14.98336221,.00033227,70.0010,281.9360,270.5012,89.5766,0,U,62171,999,4150,.25791356E-3,.2986E-4,0
STARLINK-32407,2024-225K,2025-09-01T06:35:55.558176,14.98329543,.00032713,70.0013,281.9878,266.7892,93.2893,0,U,62172,999,4150,.21613561E-3,.2487E-4,0
STARLINK-32575,2024-225L,2025-09-01T06:02:28.264128,14.98334840,.00033951,70.0004,271.9031,269.4935,90.5835,0,U,62173,999,4175,.65784596E-3,.7766E-4,0
STARLINK-32552,2024-225M,2025-09-01T06:17:52.247328,14.98372572,.00030281,70.0010,281.9495,249.1557,110.9279,0,U,62174,999,4150,.11533015E-2,.1371E-3,0
STARLINK-32534,2024-225N,2025-09-01T05:47:53.430432,14.98304060,.00034611,70.0011,282.2774,270.9492,89.1270,0,U,62175,999,4149,-.3155193E-3,-.3853E-4,0
STARLINK-32516,2024-225P,2025-09-01T05:35:52.082016,14.98319392,.00035481,70.0014,282.2485,269.8464,90.2288,0,U,62176,999,4149,.33995935E-3,.3965E-4,0
STARLINK-32542,2024-225Q,2025-09-01T06:53:55.187520,14.98330386,.00037733,70.0006,282.0296,271.3539,88.7188,0,U,62177,999,4150,-.48893884E-3,-.5922E-4,0
STARLINK-32600,2024-225R,2025-09-01T05:38:26.638656,14.98337313,.00032191,70.0007,272.2446,268.6600,91.4190,0,U,62178,999,4174,.32992593E-3,.3847E-4,0
STARLINK-32584,2024-225S,2025-09-01T06:41:57.107616,14.98323129,.00022328,70.0052,281.9463,242.9827,117.1104,0,U,62179,999,4150,.11277867E-2,.13387E-3,0
STARLINK-32587,2024-225T,2025-09-01T06:23:52.664064,14.98327081,.00032857,70.0011,281.8748,270.7547,89.3236,0,U,62180,999,4150,.41599133E-3,.4874E-4,0
STARLINK-32602,2024-225U,2025-09-01T06:50:32.004096,14.98335662,.00037662,70.0009,272.0198,266.9379,93.1349,0,U,62181,999,4175,-.14111723E-4,-.262E-5,0
STARLINK-32565,2024-225V,2025-09-01T05:59:51.352224,14.98334669,.00043387,70.0011,281.9079,273.1674,86.8989,0,U,62182,999,4150,.59287756E-3,.699E-4,0
STARLINK-32589,2024-225W,2025-09-01T05:59:39.947424,14.98328187,.00035182,70.0011,282.3049,268.2294,91.8463,0,U,62183,999,4149,.61026879E-3,.7196E-4,0
STARLINK-32581,2024-225X,2025-09-01T06:26:29.356512,14.98338008,.00037166,70.0009,271.9623,266.4001,93.6733,0,U,62184,999,4175,.19811086E-3,.2272E-4,0
2024-226A,2024-226A,2025-09-01T07:16:26.297760,13.60129652,.00562822,50.0041,277.5555,324.6067,35.1089,0,U,62185,999,3739,.73103492E-4,-.79E-6,0
2024-226B,2024-226B,2025-09-01T07:17:59.291808,13.41468100,.00120873,50.0049,307.1564,276.1172,83.8328,0,U,62186,999,3693,.15004823E-3,-.44E-6,0
TJS-13,2024-227A,2025-08-20T07:45:26.518176,2.00654507,.70777657,63.5574,75.0697,269.5601,16.4819,0,U,62188,999,521,0,.48E-5,0
HAISHAO-1,2024-228A,2025-08-30T03:45:32.205600,15.65461406,.00040599,42.9893,305.6309,17.1257,342.9745,0,U,62190,999,4197,.42170333E-3,.4322E-3,0
